CTC2_L_00112016-03
1 14218U 26201QI  26037.47791667  .00000000  00000+0  00000-0 0  9991
2 14218  60.0000 180.0000 0000000   0.0000   0.0000 14.51731110    18
CTC2_L_00112016-04
1 14219U 24813NM  26037.47791667  .00000000  00000+0  00000-0 0  9999
2 14219  60.0000 180.0000 0000000   0.0000  90.0000 14.51731110    18
CTC2_L_00112017-01
1 14220U 24912EU  26037.47791667  .00000000  00000+0  00000-0 0  9991
2 14220  60.0000 192.0000 0000000   0.0000 192.0000 14.51731110    16
CTC2_L_00112017-02
1 14221U 26838AK  26037.47791667  .00000000  00000+0  00000-0 0  9991
2 14221  60.0000 192.0000 0000000   0.0000 282.0000 14.51731110    17
CTC2_L_00112017-03
1 14222U 22331LQ  26037.47791667  .00000000  00000+0  00000-0 0  9996
2 14222  60.0000 192.0000 0000000   0.0000  12.0000 14.51731110    19
CTC2_L_00112017-04
1 14223U 22055GK  26037.47791667  .00000000  00000+0  00000-0 0  9990
2 14223  60.0000 192.0000 0000000   0.0000 102.0000 14.51731110    10
CTC2_L_00112018-01
1 14224U 25592BH  26037.47791667  .00000000  00000+0  00000-0 0  9990
2 14224  60.0000 204.0000 0000000   0.0000 204.0000 14.51731110    18
CTC2_L_00112018-02
1 14225U 26723AA  26037.47791667  .00000000  00000+0  00000-0 0  9998
2 14225  60.0000 204.0000 0000000   0.0000 294.0000 14.51731110    18
CTC2_L_00112018-03
1 14226U 25059QD  26037.47791667  .00000000  00000+0  00000-0 0  9990
2 14226  60.0000 204.0000 0000000   0.0000  24.0000 14.51731110    10
CTC2_L_00112018-04
1 14227U 22304LP  26037.47791667  .00000000  00000+0  00000-0 0  9991
2 14227  60.0000 204.0000 0000000   0.0000 114.0000 14.51731110    11
CTC2_L_00112019-01
1 14228U 23491BC  26037.47791667  .00000000  00000+0  00000-0 0  9990
2 14228  60.0000 216.0000 0000000   0.0000 216.0000 14.51731110    18
CTC2_L_00112019-02
1 14229U 26638YJ  26037.47791667  .00000000  00000+0  00000-0 0  9997
2 14229  60.0000 216.0000 0000000   0.0000 306.0000 14.51731110    19
CTC2_L_00112019-03
1 14230U 26688SV  26037.47791667  .00000000  00000+0  00000-0 0  9994
2 14230  60.0000 216.0000 0000000   0.0000  36.0000 14.51731110    11
CTC2_L_00112019-04
1 14231U 22248GK  26037.47791667  .00000000  00000+0  00000-0 0  9993
2 14231  60.0000 216.0000 0000000   0.0000 126.0000 14.51731110    12
CTC2_L_00112020-01
1 14232U 23299BS  26037.47791667  .00000000  00000+0  00000-0 0  9991
2 14232  60.0000 228.0000 0000000   0.0000 228.0000 14.51731110    19
CTC2_L_00112020-02
1 14233U 25633OS  26037.47791667  .00000000  00000+0  00000-0 0  9996
2 14233  60.0000 228.0000 0000000   0.0000 318.0000 14.51731110    10
CTC2_L_00112020-03
1 14234U 26154ZE  26037.47791667  .00000000  00000+0  00000-0 0  9996
2 14234  60.0000 228.0000 0000000   0.0000  48.0000 14.51731110    11
CTC2_L_00112020-04
1 14235U 23346D   26037.47791667  .00000000  00000+0  00000-0 0  9997
2 14235  60.0000 228.0000 0000000   0.0000 138.0000 14.51731110    12
CTC2_L_00112021-01
1 14236U 25541NX  26037.47791667  .00000000  00000+0  00000-0 0  9997
2 14236  60.0000 240.0000 0000000   0.0000 240.0000 14.51731110    11
CTC2_L_00112021-02
1 14237U 25511NS  26037.47791667  .00000000  00000+0  00000-0 0  9995
2 14237  60.0000 240.0000 0000000   0.0000 330.0000 14.51731110    12
CTC2_L_00112021-03
1 14238U 26981IP  26037.47791667  .00000000  00000+0  00000-0 0  9998
2 14238  60.0000 240.0000 0000000   0.0000  60.0000 14.51731110    13
CTC2_L_00112021-04
1 14239U 26382WE  26037.47791667  .00000000  00000+0  00000-0 0  9994
2 14239  60.0000 240.0000 0000000   0.0000 150.0000 14.51731110    14
CTC2_L_00112022-01
1 14240U 23906CL  26037.47791667  .00000000  00000+0  00000-0 0  9995
2 14240  60.0000 252.0000 0000000   0.0000 252.0000 14.51731110    12
CTC2_L_00112022-02
1 14241U 25389W   26037.47791667  .00000000  00000+0  00000-0 0  9993
2 14241  60.0000 252.0000 0000000   0.0000 342.0000 14.51731110    13
CTC2_L_00112022-03
1 14242U 26559MM  26037.47791667  .00000000  00000+0  00000-0 0  9994
2 14242  60.0000 252.0000 0000000   0.0000  72.0000 14.51731110    14
CTC2_L_00112022-04
1 14243U 26765JJ  26037.47791667  .00000000  00000+0  00000-0 0  9994
2 14243  60.0000 252.0000 0000000   0.0000 162.0000 14.51731110    15
CTC2_L_00112023-01
1 14244U 22782JT  26037.47791667  .00000000  00000+0  00000-0 0  9990
2 14244  60.0000 264.0000 0000000   0.0000 264.0000 14.51731110    12
CTC2_L_00112023-02
1 14245U 26984IG  26037.47791667  .00000000  00000+0  00000-0 0  9999
2 14245  60.0000 264.0000 0000000   0.0000 354.0000 14.51731110    13
CTC2_L_00112023-03
1 14246U 24130OO  26037.47791667  .00000000  00000+0  00000-0 0  9991
2 14246  60.0000 264.0000 0000000   0.0000  84.0000 14.51731110    14
CTC2_L_00112023-04
1 14247U 26991DP  26037.47791667  .00000000  00000+0  00000-0 0  9999
2 14247  60.0000 264.0000 0000000   0.0000 174.0000 14.51731110    15
CTC2_L_00112024-01
1 14248U 25445RJ  26037.47791667  .00000000  00000+0  00000-0 0  9993
2 14248  60.0000 276.0000 0000000   0.0000 276.0000 14.51731110    12
CTC2_L_00112024-02
1 14249U 26561JS  26037.47791667  .00000000  00000+0  00000-0 0  9994
2 14249  60.0000 276.0000 0000000   0.0000   6.0000 14.51731110    14
CTC2_L_00112024-03
1 14250U 22247XL  26037.47791667  .00000000  00000+0  00000-0 0  9993
2 14250  60.0000 276.0000 0000000   0.0000  96.0000 14.51731110    15
CTC2_L_00112024-04
1 14251U 25780VV  26037.47791667  .00000000  00000+0  00000-0 0  9999
2 14251  60.0000 276.0000 0000000   0.0000 186.0000 14.51731110    16
CTC2_L_00112025-01
1 14252U 25951HI  26037.47791667  .00000000  00000+0  00000-0 0  9990
2 14252  60.0000 288.0000 0000000   0.0000 288.0000 14.51731110    13
CTC2_L_00112025-02
1 14253U 25773XX  26037.47791667  .00000000  00000+0  00000-0 0  9993
2 14253  60.0000 288.0000 0000000   0.0000  18.0000 14.51731110    15
CTC2_L_00112025-03
1 14254U 22855TC  26037.47791667  .00000000  00000+0  00000-0 0  9992
2 14254  60.0000 288.0000 0000000   0.0000 108.0000 14.51731110    16
CTC2_L_00112025-04
1 14255U 22887PK  26037.47791667  .00000000  00000+0  00000-0 0  9998
2 14255  60.0000 288.0000 0000000   0.0000 198.0000 14.51731110    16
CTC2_L_00112026-01
1 14256U 23871OP  26037.47791667  .00000000  00000+0  00000-0 0  9993
2 14256  60.0000 300.0000 0000000   0.0000 300.0000 14.51731110    17
CTC2_L_00112026-02
1 14257U 25858DE  26037.47791667  .00000000  00000+0  00000-0 0  9991
2 14257  60.0000 300.0000 0000000   0.0000  30.0000 14.51731110    18
CTC2_L_00112026-03
1 14258U 25668IW  26037.47791667  .00000000  00000+0  00000-0 0  9991
2 14258  60.0000 300.0000 0000000   0.0000 120.0000 14.51731110    19
CTC2_L_00112026-04
1 14259U 24721NS  26037.47791667  .00000000  00000+0  00000-0 0  9991
2 14259  60.0000 300.0000 0000000   0.0000 210.0000 14.51731110    10
CTC2_L_00112027-01
1 14260U 23804ED  26037.47791667  .00000000  00000+0  00000-0 0  9994
2 14260  60.0000 312.0000 0000000   0.0000 312.0000 14.51731110    18
CTC2_L_00112027-02
1 14261U 24844YK  26037.47791667  .00000000  00000+0  00000-0 0  9990
2 14261  60.0000 312.0000 0000000   0.0000  42.0000 14.51731110    19
CTC2_L_00112027-03
1 14262U 22237HG  26037.47791667  .00000000  00000+0  00000-0 0  9995
2 14262  60.0000 312.0000 0000000   0.0000 132.0000 14.51731110    10
CTC2_L_00112027-04
1 14263U 23934OW  26037.47791667  .00000000  00000+0  00000-0 0  9991
2 14263  60.0000 312.0000 0000000   0.0000 222.0000 14.51731110    11
CTC2_L_00112028-01
1 14264U 26265JT  26037.47791667  .00000000  00000+0  00000-0 0  9992
2 14264  60.0000 324.0000 0000000   0.0000 324.0000 14.51731110    18
CTC2_L_00112028-02
1 14265U 25216QV  26037.47791667  .00000000  00000+0  00000-0 0  9998
2 14265  60.0000 324.0000 0000000   0.0000  54.0000 14.51731110    19
CTC2_L_00112028-03
1 14266U 22324QK  26037.47791667  .00000000  00000+0  00000-0 0  9996
2 14266  60.0000 324.0000 0000000   0.0000 144.0000 14.51731110    10
CTC2_L_00112028-04
1 14267U 22337VO  26037.47791667  .00000000  00000+0  00000-0 0  9991
2 14267  60.0000 324.0000 0000000   0.0000 234.0000 14.51731110    11
CTC2_L_00112029-01
1 14268U 25541NA  26037.47791667  .00000000  00000+0  00000-0 0  9992
2 14268  60.0000 336.0000 0000000   0.0000 336.0000 14.51731110    18
CTC2_L_00112029-02
1 14269U 22803YK  26037.47791667  .00000000  00000+0  00000-0 0  9991
2 14269  60.0000 336.0000 0000000   0.0000  66.0000 14.51731110    19
CTC2_L_00112029-03
1 14270U 22740QE  26037.47791667  .00000000  00000+0  00000-0 0  9993
2 14270  60.0000 336.0000 0000000   0.0000 156.0000 14.51731110    11
CTC2_L_00112029-04
1 14271U 26235FY  26037.47791667  .00000000  00000+0  00000-0 0  9997
2 14271  60.0000 336.0000 0000000   0.0000 246.0000 14.51731110    12
CTC2_L_00112030-01
1 14272U 26481AA  26037.47791667  .00000000  00000+0  00000-0 0  9991
2 14272  60.0000 348.0000 0000000   0.0000 348.0000 14.51731110    19
CTC2_L_00112030-02
1 14273U 26110AQ  26037.47791667  .00000000  00000+0  00000-0 0  9991
2 14273  60.0000 348.0000 0000000   0.0000  78.0000 14.51731110    10
CTC2_L_00112030-03
1 14274U 22882BD  26037.47791667  .00000000  00000+0  00000-0 0  9994
2 14274  60.0000 348.0000 0000000   0.0000 168.0000 14.51731110    11
CTC2_L_00112030-04
1 14275U 23919FV  26037.47791667  .00000000  00000+0  00000-0 0  9997
2 14275  60.0000 348.0000 0000000   0.0000 258.0000 14.51731110    12
